line1,line2,validFromUtcTime
1 00000U 00000E   26001.00000000  .00000000  00000-0  27772-4 0    01,2 00000  88.9257 150.3354 0010040 269.4797 105.3958 13.55324026    03,2026-01-01T00:00:00Z
1 00000U 00000E   26002.00000000  .00000000  00000-0  27772-4 0    02,2 00000  88.9257 150.2261 0010040 266.5693 304.5608 13.55324065    00,2026-01-02T00:00:00Z
